GNOMES-1                
1 46266U 20059B   26068.53916665  .00004080  00000+0  33422-3 0  9991
2 46266  97.8057 278.7760 0005451 357.8604   2.2595 14.99848479300657
STARLINK-34024          
1 64031U 25102K   26068.50742344 -.00000974  00000+0 -73838-4 0  9999
2 64031  70.0018 114.9676 0003035 262.1473  97.9341 14.98324766 45868
